NORAD_CAT_ID,OBJECT_NAME,OBJECT_TYPE,EPOCH,MEAN_MOTION,ECCENTRICITY,INCLINATION,RA_OF_ASC_NODE,ARG_OF_PERICENTER,MEAN_ANOMALY,BSTAR,MEAN_MOTION_DOT,MEAN_MOTION_DDOT,TLE_LINE0,TLE_LINE1,TLE_LINE2,SEMIMAJOR_AXIS,PERIOD,APOGEE,PERIGEE,DECAYED
53781.0,STARLINK-4462,PAYLOAD,2022-09-19 18:00:00,15.73158571,0.0001094,53.2152,224.0845,109.2013,313.4664,0.0001145,0.00015451,0.0,0 STARLINK-4462,1 53781U 22111J   22262.75001157  .00015451  00000-0  11450-3 0  9991,2 53781  53.2152 224.0845 0001094 109.2013 313.4664 15.73158571  1303,6728.013000000001,91.536,350.61400000000015,349.142,0.0
53781.0,STARLINK-4462,PAYLOAD,2022-09-20 06:00:00,15.73200915,0.0001092,53.2164,221.6126,98.0078,277.9923,0.00030403,0.00042265,0.0,0 STARLINK-4462,1 53781U 22111J   22263.25001157  .00042265  00000-0  30403-3 0  9999,2 53781  53.2164 221.6126 0001092  98.0078 277.9923 15.73200915  1374,6727.893,91.533,350.492,349.023,0.0
53781.0,STARLINK-4462,PAYLOAD,2022-09-20 14:00:01,15.73213449,0.0001155,53.2165,219.9616,105.6523,359.3031,0.00018056,0.0002481,0.0,0 STARLINK-4462,1 53781U 22111J   22263.58334491  .00024810  00000-0  18056-3 0  9991,2 53781  53.2165 219.9616 0001155 105.6523 359.3031 15.73213449  1303,6727.857,91.532,350.499,348.945,0.0
53781.0,STARLINK-4462,PAYLOAD,2022-09-20 22:00:01,15.73228231,0.0001324,53.2168,218.3115,110.3499,83.5628,7.471e-05,9.89e-05,0.0,0 STARLINK-4462,1 53781U 22111J   22263.91668981  .00009890  00000-0  74710-4 0  9993,2 53781  53.2168 218.3115 0001324 110.3499  83.5628 15.73228231  1488,6727.815,91.532,350.57,348.789,0.0
53781.0,STARLINK-4462,PAYLOAD,2022-09-21 14:00:01,15.73173847,0.0001314,53.2165,215.0129,106.5816,265.1713,-9.7399e-05,-0.0001425,0.0,0 STARLINK-4462,1 53781U 22111J   22264.58334491 -.00014250  00000-0 -97399-4 0  9999,2 53781  53.2165 215.0129 0001314 106.5816 265.1713 15.73173847  1589,6727.97,91.535,350.719,348.951,0.0
53781.0,STARLINK-4462,PAYLOAD,2022-09-21 22:00:00,15.73183056,0.0001443999999999,53.2167,213.3633,110.7761,349.8609,0.00038946,0.00054353,0.0,0 STARLINK-4462,1 53781U 22111J   22264.91667824  .00054353  00000-0  38946-3 0  9993,2 53781  53.2167 213.3633 0001444 110.7761 349.8609 15.73183056  1646,6727.943,91.534,350.78,348.837,0.0
53781.0,STARLINK-4462,PAYLOAD,2022-09-22 06:00:00,15.73211064,0.0001230999999999,53.2168,211.7158,101.6756,87.88,-7.8304e-05,-0.00011599,0.0,0 STARLINK-4462,1 53781U 22111J   22265.25001157 -.00011599  00000-0 -78304-4 0  9992,2 53781  53.2168 211.7158 0001231 101.6756  87.8800 15.73211064  1696,6727.864000000001,91.533,350.557,348.9,0.0
53781.0,STARLINK-4462,PAYLOAD,2022-09-22 14:00:01,15.73184981,0.0001107999999999,53.217,210.0646,112.8052,165.6854,0.00019597,0.00026954,0.0,0 STARLINK-4462,1 53781U 22111J   22265.58334491  .00026954  00000-0  19597-3 0  9995,2 53781  53.2170 210.0646 0001108 112.8052 165.6854 15.73184981  1308,6727.938,91.534,350.548,349.05800000000005,0.0
53781.0,STARLINK-4462,PAYLOAD,2022-09-22 22:00:00,15.73342287,0.0001476,53.2174,208.4147,118.0887,249.3594,-0.00021232,-0.00030493,0.0,0 STARLINK-4462,1 53781U 22111J   22265.91667824 -.00030493  00000-0 -21232-3 0  9995,2 53781  53.2174 208.4147 0001476 118.0887 249.3594 15.73342287  1307,6727.49,91.525,350.348,348.362,0.0
53781.0,STARLINK-4462,PAYLOAD,2022-09-23 14:00:01,15.73264921,0.0001347,53.2173,205.1153,118.7537,66.8358,0.00021109,0.0002918999999999,0.0,0 STARLINK-4462,1 53781U 22111J   22266.58334491  .00029190  00000-0  21109-3 0  9993,2 53781  53.2173 205.1153 0001347 118.7537  66.8358 15.73264921  1301,6727.71,91.529,350.481,348.6690000000001,0.0
53781.0,STARLINK-4462,PAYLOAD,2022-09-23 20:00:01,15.733472699999998,0.0001474,53.2174,203.8778,126.1223,36.2782,-0.0010458,-0.00145795,0.0,0 STARLINK-4462,1 53781U 22111J   22266.83335648 -.00145795  00000-0 -10458-2 0  9992,2 53781  53.2174 203.8778 0001474 126.1223  36.2782 15.73347270  1307,6727.475,91.525,350.332,348.349,0.0
53781.0,STARLINK-4462,PAYLOAD,2022-09-24 06:00:00,15.73142373,0.0001082,53.2174,201.818,123.9388,239.7206,5.0638e-05,6.475e-05,0.0,0 STARLINK-4462,1 53781U 22111J   22267.25001157  .00006475  00000-0  50638-4 0  9999,2 53781  53.2174 201.8180 0001082 123.9388 239.7206 15.73142373  2000,6728.059,91.537,350.652,349.196,0.0
53781.0,STARLINK-4462,PAYLOAD,2022-09-24 14:00:01,15.73154161,0.000128,53.2178,200.1667,127.6993,324.8855,9.5115e-05,0.00012723,0.0,0 STARLINK-4462,1 53781U 22111J   22267.58335648  .00012723  00000-0  95115-4 0  9992,2 53781  53.2178 200.1667 0001280 127.6993 324.8855 15.73154161  1305,6728.026,91.536,350.75199999999984,349.03,0.0
53781.0,STARLINK-4462,PAYLOAD,2022-09-24 22:00:00,15.73152732,0.0001433,53.2181,198.5176,124.3438,57.0584,0.0002075,0.00028541,0.0,0 STARLINK-4462,1 53781U 22111J   22267.91667824  .00028541  00000-0  20750-3 0  9990,2 53781  53.2181 198.5176 0001433 124.3438  57.0584 15.73152732  1308,6728.03,91.536,350.8590000000001,348.931,0.0
53781.0,STARLINK-4462,PAYLOAD,2022-09-25 14:00:01,15.73125638,0.0001395999999999,53.218,195.219,129.0531,230.1191,-3.0809e-05,-4.927e-05,0.0,0 STARLINK-4462,1 53781U 22111J   22268.58334491 -.00004927  00000-0 -30809-4 0  9996,2 53781  53.2180 195.2190 0001396 129.0531 230.1191 15.73125638  2215,6728.107,91.538,350.911,349.033,0.0
53781.0,STARLINK-4462,PAYLOAD,2022-09-25 22:00:01,15.73004633,0.000174,53.2176,193.5743,118.8741,329.1771,0.0020741999999999,0.00298563,0.0,0 STARLINK-4462,1 53781U 22111J   22268.91668981  .00298563  00000-0  20742-2 0  9999,2 53781  53.2176 193.5743 0001740 118.8741 329.1771 15.73004633  1300,6728.4519999999975,91.545,351.48800000000006,349.146,0.0
53781.0,STARLINK-4462,PAYLOAD,2022-09-26 10:00:00,15.73219492,0.0001357,53.2177,191.0966,123.044,278.3142,-0.0005272,-0.00074023,0.0,0 STARLINK-4462,1 53781U 22111J   22269.41667824 -.00074023  00000-0 -52720-3 0  9997,2 53781  53.2177 191.0966 0001357 123.0440 278.3142 15.73219492  2342,6727.84,91.532,350.61800000000005,348.792,0.0
53781.0,STARLINK-4462,PAYLOAD,2022-09-26 14:00:01,15.73146852,0.0001493,53.2181,190.2709,126.0892,139.743,0.0002561,0.00035392,0.0,0 STARLINK-4462,1 53781U 22111J   22269.58334491  .00035392  00000-0  25610-3 0  9998,2 53781  53.2181 190.2709 0001493 126.0892 139.7430 15.73146852  1302,6728.047,91.536,350.916,348.907,0.0
53781.0,STARLINK-4462,PAYLOAD,2022-09-26 22:00:00,15.73204464,0.0001516,53.2183,188.6221,125.169,229.5312,-0.00012854,-0.00018624,0.0,0 STARLINK-4462,1 53781U 22111J   22269.91667824 -.00018624  00000-0 -12854-3 0  9991,2 53781  53.2183 188.6221 0001516 125.1690 229.5312 15.73204464  1307,6727.882,91.533,350.767,348.727,0.0
53781.0,STARLINK-4462,PAYLOAD,2022-09-27 14:00:01,15.731886800000002,0.0001301,53.2178,185.3227,135.779,36.7868,0.0007309,0.00103174,0.0,0 STARLINK-4462,1 53781U 22111J   22270.58334491  .00103174  00000-0  73090-3 0  9999,2 53781  53.2178 185.3227 0001301 135.7790  36.7868 15.73188680  2532,6727.927,91.534,350.668,348.917,0.0
53781.0,STARLINK-4462,PAYLOAD,2022-09-27 22:00:01,15.73306992,0.0001375,53.2177,183.6743,131.6837,129.9034,-0.0002367,-0.00033859,0.0,0 STARLINK-4462,1 53781U 22111J   22270.91668981 -.00033859  00000-0 -23670-3 0  9993,2 53781  53.2177 183.6743 0001375 131.6837 129.9034 15.73306992  1305,6727.59,91.527,350.38,348.53,0.0
53781.0,STARLINK-4462,PAYLOAD,2022-09-28 14:00:01,15.73368741,0.0001939,53.2174,180.3738,143.2797,296.436,-0.00034337,-0.00048884,0.0,0 STARLINK-4462,1 53781U 22111J   22271.58334491 -.00048884  00000-0 -34337-3 0  9999,2 53781  53.2174 180.3738 0001939 143.2797 296.4360 15.73368741  2695,6727.4140000000025,91.523,350.584,347.975,0.0
53781.0,STARLINK-4462,PAYLOAD,2022-09-28 22:00:00,15.73358059,0.0001847,53.2176,178.7251,142.2538,26.541,-0.0013081,-0.00181538,0.0,0 STARLINK-4462,1 53781U 22111J   22271.91667824 -.00181538  00000-0 -13081-2 0  9991,2 53781  53.2176 178.7251 0001847 142.2538  26.5410 15.73358059  2743,6727.445,91.524,350.552,348.06699999999995,0.0
53781.0,STARLINK-4462,PAYLOAD,2022-09-29 14:00:01,15.73155815,0.0001885,53.217,175.4249,147.3155,199.4699,-0.0012902999999999,-0.00177615,0.0,0 STARLINK-4462,1 53781U 22111J   22272.58334491 -.00177615  00000-0 -12903-2 0  9999,2 53781  53.2170 175.4249 0001885 147.3155 199.4699 15.73155815  1306,6728.021,91.536,351.154,348.61800000000005,0.0
53781.0,STARLINK-4462,PAYLOAD,2022-09-29 20:00:01,15.73032649,0.0001898,53.2171,174.1886,145.7372,177.7294,-9.6722e-05,-0.00014075,0.0,0 STARLINK-4462,1 53781U 22111J   22272.83335648 -.00014075  00000-0 -96722-4 0  9995,2 53781  53.2171 174.1886 0001898 145.7372 177.7294 15.73032649  2880,6728.371999999999,91.543,351.514,348.96,0.0
53781.0,STARLINK-4462,PAYLOAD,2022-09-29 22:00:00,15.73018547,0.0001754999999999,53.2168,173.7772,146.9364,288.6471,0.00016992,0.00023109,0.0,0 STARLINK-4462,1 53781U 22111J   22272.91667824  .00023109  00000-0  16992-3 0  9994,2 53781  53.2168 173.7772 0001755 146.9364 288.6471 15.73018547  1307,6728.413000000001,91.544,351.458,349.097,0.0
53781.0,STARLINK-4462,PAYLOAD,2022-09-30 06:00:02,15.73025267,0.0001654,53.2163,172.1289,144.2681,20.0927,0.0012587,0.00178494,0.0,0 STARLINK-4462,1 53781U 22111J   22273.25002315  .00178494  00000-0  12587-2 0  9993,2 53781  53.2163 172.1289 0001654 144.2681  20.0927 15.73025267  2952,6728.393,91.543,351.371,349.146,0.0
53781.0,STARLINK-4462,PAYLOAD,2022-09-30 14:00:01,15.73111407,0.000188,53.2165,170.4777,148.5387,104.547,0.00076323,0.00107467,0.0,0 STARLINK-4462,1 53781U 22111J   22273.58334491  .00107467  00000-0  76323-3 0  9993,2 53781  53.2165 170.4777 0001880 148.5387 104.5470 15.73111407  1309,6728.148,91.538,351.278,348.74800000000016,0.0
53781.0,STARLINK-4462,PAYLOAD,2022-09-30 16:00:00,15.73130936,0.0001933,53.2167,170.0651,148.0655,217.2291,0.00069647,0.00097984,0.0,0 STARLINK-4462,1 53781U 22111J   22273.66667824  .00097984  00000-0  69647-3 0  9994,2 53781  53.2167 170.0651 0001933 148.0655 217.2291 15.73130936  3011,6728.092,91.537,351.2580000000001,348.657,0.0
